CCSDS_OMM_VERS = 2.0
CREATION_DATE  = 
ORIGINATOR     = 

OBJECT_NAME    = SL-16 R/B
OBJECT_ID      = 1998-043G
CENTER_NAME    = EARTH
REF_FRAME      = TEME
TIME_SYSTEM    = UTC
MEAN_ELEMENT_THEORY = SGP/SGP4

EPOCH          = 2025-12-11T21:16:11.461728
MEAN_MOTION    = 14.26025309
ECCENTRICITY   = .0008793
INCLINATION    = 98.8123
RA_OF_ASC_NODE = 293.6995
ARG_OF_PERICENTER = 269.5518
MEAN_ANOMALY   = 90.4654

EPHEMERIS_TYPE = 0
CLASSIFICATION_TYPE = U
NORAD_CAT_ID   = 25400
ELEMENT_SET_NO = 999
REV_AT_EPOCH   = 42647
BSTAR          = .80397E-4
MEAN_MOTION_DOT = .147E-5
MEAN_MOTION_DDOT = 0

CCSDS_OMM_VERS = 2.0
CREATION_DATE  = 
ORIGINATOR     = 

OBJECT_NAME    = SL-16 R/B
OBJECT_ID      = 1998-045B
CENTER_NAME    = EARTH
REF_FRAME      = TEME
TIME_SYSTEM    = UTC
MEAN_ELEMENT_THEORY = SGP/SGP4

EPOCH          = 2025-12-12T06:29:11.385888
MEAN_MOTION    = 14.16175167
ECCENTRICITY   = .00069603
INCLINATION    = 71.0119
RA_OF_ASC_NODE = 5.4145
ARG_OF_PERICENTER = 178.4496
MEAN_ANOMALY   = 181.6650

EPHEMERIS_TYPE = 0
CLASSIFICATION_TYPE = U
NORAD_CAT_ID   = 25407
ELEMENT_SET_NO = 999
REV_AT_EPOCH   = 41472
BSTAR          = -.69579814E-4
MEAN_MOTION_DOT = -.185E-5
MEAN_MOTION_DDOT = 0

CCSDS_OMM_VERS = 2.0
CREATION_DATE  = 
ORIGINATOR     = 

OBJECT_NAME    = ISS (ZARYA)
OBJECT_ID      = 1998-067A
CENTER_NAME    = EARTH
REF_FRAME      = TEME
TIME_SYSTEM    = UTC
MEAN_ELEMENT_THEORY = SGP/SGP4

EPOCH          = 2025-12-12T03:41:57.165504
MEAN_MOTION    = 15.49529746
ECCENTRICITY   = .00032837
INCLINATION    = 51.6307
RA_OF_ASC_NODE = 145.3792
ARG_OF_PERICENTER = 237.6977
MEAN_ANOMALY   = 122.3694

EPHEMERIS_TYPE = 0
CLASSIFICATION_TYPE = U
NORAD_CAT_ID   = 25544
ELEMENT_SET_NO = 999
REV_AT_EPOCH   = 54276
BSTAR          = .26408062E-3
MEAN_MOTION_DOT = .14398E-3
MEAN_MOTION_DDOT = 0

CCSDS_OMM_VERS = 2.0
CREATION_DATE  = 
ORIGINATOR     = 

OBJECT_NAME    = CZ-4B R/B
OBJECT_ID      = 1999-025C
CENTER_NAME    = EARTH
REF_FRAME      = TEME
TIME_SYSTEM    = UTC
MEAN_ELEMENT_THEORY = SGP/SGP4

EPOCH          = 2025-12-12T02:42:13.502592
MEAN_MOTION    = 14.18243385
ECCENTRICITY   = .00362622
INCLINATION    = 98.6770
RA_OF_ASC_NODE = 27.4067
ARG_OF_PERICENTER = 235.8475
MEAN_ANOMALY   = 177.1852

EPHEMERIS_TYPE = 0
CLASSIFICATION_TYPE = U
NORAD_CAT_ID   = 25732
ELEMENT_SET_NO = 999
REV_AT_EPOCH   = 37575
BSTAR          = .83488679E-4
MEAN_MOTION_DOT = .129E-5
MEAN_MOTION_DDOT = 0

CCSDS_OMM_VERS = 2.0
CREATION_DATE  = 
ORIGINATOR     = 

OBJECT_NAME    = OKEAN-O
OBJECT_ID      = 1999-039A
CENTER_NAME    = EARTH
REF_FRAME      = TEME
TIME_SYSTEM    = UTC
MEAN_ELEMENT_THEORY = SGP/SGP4

EPOCH          = 2025-12-12T04:20:52.369152
MEAN_MOTION    = 14.80160086
ECCENTRICITY   = .00008264
INCLINATION    = 97.9603
RA_OF_ASC_NODE = 41.8876
ARG_OF_PERICENTER = 97.1754
MEAN_ANOMALY   = 262.9551

EPHEMERIS_TYPE = 0
CLASSIFICATION_TYPE = U
NORAD_CAT_ID   = 25860
ELEMENT_SET_NO = 999
REV_AT_EPOCH   = 42144
BSTAR          = .17011853E-3
MEAN_MOTION_DOT = .1239E-4
MEAN_MOTION_DDOT = 0

CCSDS_OMM_VERS = 2.0
CREATION_DATE  = 
ORIGINATOR     = 

OBJECT_NAME    = SL-16 R/B
OBJECT_ID      = 1999-039B
CENTER_NAME    = EARTH
REF_FRAME      = TEME
TIME_SYSTEM    = UTC
MEAN_ELEMENT_THEORY = SGP/SGP4

EPOCH          = 2025-12-12T04:14:33.817920
MEAN_MOTION    = 14.81585442
ECCENTRICITY   = .0014876
INCLINATION    = 98.0127
RA_OF_ASC_NODE = 40.3279
ARG_OF_PERICENTER = 176.4520
MEAN_ANOMALY   = 183.6801

EPHEMERIS_TYPE = 0
CLASSIFICATION_TYPE = U
NORAD_CAT_ID   = 25861
ELEMENT_SET_NO = 999
REV_AT_EPOCH   = 42390
BSTAR          = .13526438E-3
MEAN_MOTION_DOT = .101E-4
MEAN_MOTION_DDOT = 0

CCSDS_OMM_VERS = 2.0
CREATION_DATE  = 
ORIGINATOR     = 

OBJECT_NAME    = DELTA 2 R/B
OBJECT_ID      = 1999-041E
CENTER_NAME    = EARTH
REF_FRAME      = TEME
TIME_SYSTEM    = UTC
MEAN_ELEMENT_THEORY = SGP/SGP4

EPOCH          = 2025-12-12T05:13:53.567904
MEAN_MOTION    = 14.11398724
ECCENTRICITY   = .05047101
INCLINATION    = 51.7613
RA_OF_ASC_NODE = 290.5287
ARG_OF_PERICENTER = 90.2274
MEAN_ANOMALY   = 275.6478

EPHEMERIS_TYPE = 0
CLASSIFICATION_TYPE = U
NORAD_CAT_ID   = 25876
ELEMENT_SET_NO = 999
REV_AT_EPOCH   = 35067
BSTAR          = .33902305E-3
MEAN_MOTION_DOT = .1862E-4
MEAN_MOTION_DDOT = 0

CCSDS_OMM_VERS = 2.0
CREATION_DATE  = 
ORIGINATOR     = 

OBJECT_NAME    = HELIOS 1B
OBJECT_ID      = 1999-064A
CENTER_NAME    = EARTH
REF_FRAME      = TEME
TIME_SYSTEM    = UTC
MEAN_ELEMENT_THEORY = SGP/SGP4

EPOCH          = 2025-12-12T06:21:58.795776
MEAN_MOTION    = 14.87280917
ECCENTRICITY   = .0001744
INCLINATION    = 98.1750
RA_OF_ASC_NODE = 240.9168
ARG_OF_PERICENTER = 44.6752
MEAN_ANOMALY   = 315.4603

EPHEMERIS_TYPE = 0
CLASSIFICATION_TYPE = U
NORAD_CAT_ID   = 25977
ELEMENT_SET_NO = 999
REV_AT_EPOCH   = 67226
BSTAR          = .43118494E-3
MEAN_MOTION_DOT = .3831E-4
MEAN_MOTION_DDOT = 0

CCSDS_OMM_VERS = 2.0
CREATION_DATE  = 
ORIGINATOR     = 

OBJECT_NAME    = TERRA
OBJECT_ID      = 1999-068A
CENTER_NAME    = EARTH
REF_FRAME      = TEME
TIME_SYSTEM    = UTC
MEAN_ELEMENT_THEORY = SGP/SGP4

EPOCH          = 2025-12-12T06:10:29.161344
MEAN_MOTION    = 14.60901204
ECCENTRICITY   = .00036035
INCLINATION    = 97.9750
RA_OF_ASC_NODE = 37.9595
ARG_OF_PERICENTER = 95.4967
MEAN_ANOMALY   = 339.2568

EPHEMERIS_TYPE = 0
CLASSIFICATION_TYPE = U
NORAD_CAT_ID   = 25994
ELEMENT_SET_NO = 999
REV_AT_EPOCH   = 38231
BSTAR          = .17223026E-3
MEAN_MOTION_DOT = .798E-5
MEAN_MOTION_DDOT = 0

CCSDS_OMM_VERS = 2.0
CREATION_DATE  = 
ORIGINATOR     = 

OBJECT_NAME    = SL-16 R/B
OBJECT_ID      = 2000-006B
CENTER_NAME    = EARTH
REF_FRAME      = TEME
TIME_SYSTEM    = UTC
MEAN_ELEMENT_THEORY = SGP/SGP4

EPOCH          = 2025-12-12T06:18:42.587424
MEAN_MOTION    = 14.15810687
ECCENTRICITY   = .00184967
INCLINATION    = 71.0033
RA_OF_ASC_NODE = 281.6596
ARG_OF_PERICENTER = 309.2073
MEAN_ANOMALY   = 50.7407

EPHEMERIS_TYPE = 0
CLASSIFICATION_TYPE = U
NORAD_CAT_ID   = 26070
ELEMENT_SET_NO = 999
REV_AT_EPOCH   = 33618
BSTAR          = -.24860782E-4
MEAN_MOTION_DOT = -.97E-6
MEAN_MOTION_DDOT = 0

CCSDS_OMM_VERS = 2.0
CREATION_DATE  = 
ORIGINATOR     = 

OBJECT_NAME    = TITAN 4B R/B
OBJECT_ID      = 2000-047B
CENTER_NAME    = EARTH
REF_FRAME      = TEME
TIME_SYSTEM    = UTC
MEAN_ELEMENT_THEORY = SGP/SGP4

EPOCH          = 2025-12-12T05:06:16.131744
MEAN_MOTION    = 15.08775098
ECCENTRICITY   = .00389393
INCLINATION    = 67.9900
RA_OF_ASC_NODE = 286.3354
ARG_OF_PERICENTER = 145.0410
MEAN_ANOMALY   = 215.3308

EPHEMERIS_TYPE = 0
CLASSIFICATION_TYPE = U
NORAD_CAT_ID   = 26474
ELEMENT_SET_NO = 999
REV_AT_EPOCH   = 37971
BSTAR          = .38853789E-3
MEAN_MOTION_DOT = .6098E-4
MEAN_MOTION_DDOT = 0

CCSDS_OMM_VERS = 2.0
CREATION_DATE  = 
ORIGINATOR     = 

OBJECT_NAME    = ENVISAT
OBJECT_ID      = 2002-009A
CENTER_NAME    = EARTH
REF_FRAME      = TEME
TIME_SYSTEM    = UTC
MEAN_ELEMENT_THEORY = SGP/SGP4

EPOCH          = 2025-12-12T07:11:13.392384
MEAN_MOTION    = 14.38999087
ECCENTRICITY   = .0001142
INCLINATION    = 98.3599
RA_OF_ASC_NODE = 297.0511
ARG_OF_PERICENTER = 82.5365
MEAN_ANOMALY   = 80.8730

EPHEMERIS_TYPE = 0
CLASSIFICATION_TYPE = U
NORAD_CAT_ID   = 27386
ELEMENT_SET_NO = 999
REV_AT_EPOCH   = 24660
BSTAR          = .95037181E-4
MEAN_MOTION_DOT = .251E-5
MEAN_MOTION_DDOT = 0

