SL-16 R/B               
1 25400U 98043G   25345.88624377  .00000147  00000+0  80397-4 0  9991
2 25400  98.8123 293.6995 0008793 269.5518  90.4654 14.26025309426473
SL-16 R/B               
1 25407U 98045B   25346.27027067 -.00000185  00000+0 -69580-4 0  9992
2 25407  71.0119   5.4145 0006960 178.4496 181.6650 14.16175167414722
ISS (ZARYA)             
1 25544U 98067A   25346.15413386  .00014398  00000+0  26408-3 0  9998
2 25544  51.6307 145.3792 0003283 237.6977 122.3694 15.49529746542765
CZ-4B R/B               
1 25732U 99025C   25346.11265628  .00000129  00000+0  83489-4 0  9992
2 25732  98.6770  27.4067 0036262 235.8475 177.1852 14.18243385375754
OKEAN-O                 
1 25860U 99039A   25346.18116168  .00001239  00000+0  17012-3 0  9991
2 25860  97.9603  41.8876 0000826  97.1754 262.9551 14.80160086421449
SL-16 R/B               
1 25861U 99039B   25346.17678030  .00001010  00000+0  13526-3 0  9995
2 25861  98.0127  40.3279 0014876 176.4520 183.6801 14.81585442423904
DELTA 2 R/B             
1 25876U 99041E   25346.21798111  .00001862  00000+0  33902-3 0  9997
2 25876  51.7613 290.5287 0504710  90.2274 275.6478 14.11398724350677
HELIOS 1B               
1 25977U 99064A   25346.26526384  .00003831  00000+0  43118-3 0  9998
2 25977  98.1750 240.9168 0001744  44.6752 315.4603 14.87280917672268
TERRA                   
1 25994U 99068A   25346.25728196  .00000798  00000+0  17223-3 0  9992
2 25994  97.9750  37.9595 0003603  95.4967 339.2568 14.60901204382318
SL-16 R/B               
1 26070U 00006B   25346.26299291 -.00000097  00000+0 -24861-4 0  9993
2 26070  71.0033 281.6596 0018496 309.2073  50.7407 14.15810687336185
TITAN 4B R/B            
1 26474U 00047B   25346.21268671  .00006098  00000+0  38854-3 0  9990
2 26474  67.9900 286.3354 0038939 145.0410 215.3308 15.08775098379713
ENVISAT                 
1 27386U 02009A   25346.29946056  .00000251  00000+0  95037-4 0  9993
2 27386  98.3599 297.0511 0001142  82.5365  80.8730 14.38999087246605
